{
  "type": "FeatureCollection",
  "features": [
    {
      "type": "Feature",
      "properties": {
        "norad_id": 66352,
        "name": "STARLINK-35850",
        "group": "last-30-days",
        "lat": -51.836765999688886,
        "lon": -154.79089800475708,
        "alt_km": 406.4006707152221,
        "timestamp": "2025-12-05T04:52:14.140572+00:00",
        "meta_object_name": "STARLINK-35850",
        "meta_object_id": "2025-254E",
        "meta_epoch": "2025-12-04T18:00:02.000160",
        "meta_mean_motion": 15.575048,
        "meta_eccentricity": 0.0001276,
        "meta_inclination": 53.1593,
        "meta_ra_of_asc_node": 314.8424,
        "meta_arg_of_pericenter": 101.8625,
        "meta_mean_anomaly": 138.1439,
        "meta_ephemeris_type": 0,
        "meta_classification_type": "U",
        "meta_norad_cat_id": 66352,
        "meta_element_set_no": 999,
        "meta_rev_at_epoch": 559,
        "meta_bstar": -0.031148,
        "meta_mean_motion_dot": -0.02079913,
        "meta_mean_motion_ddot": 0,
        "tle_line1": "1 66352U 25254E   25338.75002315 -.02079913  00000+0 -31148-1 0  9994",
        "tle_line2": "2 66352  53.1593 314.8424 0001276 101.8625 138.1439 15.57504800  5598"
      },
      "geometry": {
        "type": "Point",
        "coordinates": [
          -154.79089800475708,
          -51.836765999688886
        ]
      }
    },
    {
      "type": "Feature",
      "properties": {
        "norad_id": 66353,
        "name": "STARLINK-35869",
        "group": "last-30-days",
        "lat": -52.25678540588706,
        "lon": -151.76005409312214,
        "alt_km": 406.44580713648065,
        "timestamp": "2025-12-05T04:52:14.140584+00:00",
        "meta_object_name": "STARLINK-35869",
        "meta_object_id": "2025-254F",
        "meta_epoch": "2025-12-04T18:00:02.000160",
        "meta_mean_motion": 15.5750722,
        "meta_eccentricity": 0.0001335,
        "meta_inclination": 53.1592,
        "meta_ra_of_asc_node": 314.838,
        "meta_arg_of_pericenter": 104.863,
        "meta_mean_anomaly": 137.0579,
        "meta_ephemeris_type": 0,
        "meta_classification_type": "U",
        "meta_norad_cat_id": 66353,
        "meta_element_set_no": 999,
        "meta_rev_at_epoch": 563,
        "meta_bstar": -0.031183,
        "meta_mean_motion_dot": -0.02082219,
        "meta_mean_motion_ddot": 0,
        "tle_line1": "1 66353U 25254F   25338.75002315 -.02082219  00000+0 -31183-1 0  9997",
        "tle_line2": "2 66353  53.1592 314.8380 0001335 104.8630 137.0579 15.57507220  5631"
      },
      "geometry": {
        "type": "Point",
        "coordinates": [
          -151.76005409312214,
          -52.25678540588706
        ]
      }
    },
    {
      "type": "Feature",
      "properties": {
        "norad_id": 66354,
        "name": "STARLINK-35895",
        "group": "last-30-days",
        "lat": 24.570479945961377,
        "lon": -26.841931417450752,
        "alt_km": 415.5027877628081,
        "timestamp": "2025-12-05T04:52:14.140596+00:00",
        "meta_object_name": "STARLINK-35895",
        "meta_object_id": "2025-254G",
        "meta_epoch": "2025-12-04T18:00:02.000160",
        "meta_mean_motion": 15.49222578,
        "meta_eccentricity": 0.0001141,
        "meta_inclination": 53.1599,
        "meta_ra_of_asc_node": 315.2776,
        "meta_arg_of_pericenter": 77.4084,
        "meta_mean_anomaly": 306.4835,
        "meta_ephemeris_type": 0,
        "meta_classification_type": "U",
        "meta_norad_cat_id": 66354,
        "meta_element_set_no": 999,
        "meta_rev_at_epoch": 563,
        "meta_bstar": 0.0014298,
        "meta_mean_motion_dot": 0.00079642,
        "meta_mean_motion_ddot": 0,
        "tle_line1": "1 66354U 25254G   25338.75002315  .00079642  00000+0  14298-2 0  9999",
        "tle_line2": "2 66354  53.1599 315.2776 0001141  77.4084 306.4835 15.49222578  5634"
      },
      "geometry": {
        "type": "Point",
        "coordinates": [
          -26.841931417450752,
          24.570479945961377
        ]
      }
    },
    {
      "type": "Feature",
      "properties": {
        "norad_id": 66355,
        "name": "STARLINK-35861",
        "group": "last-30-days",
        "lat": -52.85667983186288,
        "lon": -145.55370378051686,
        "alt_km": 406.48445932011873,
        "timestamp": "2025-12-05T04:52:14.140607+00:00",
        "meta_object_name": "STARLINK-35861",
        "meta_object_id": "2025-254H",
        "meta_epoch": "2025-12-04T18:00:02.000160",
        "meta_mean_motion": 15.57503447,
        "meta_eccentricity": 0.0001317,
        "meta_inclination": 53.159,
        "meta_ra_of_asc_node": 314.8296,
        "meta_arg_of_pericenter": 101.3843,
        "meta_mean_anomaly": 144.3734,
        "meta_ephemeris_type": 0,
        "meta_classification_type": "U",
        "meta_norad_cat_id": 66355,
        "meta_element_set_no": 999,
        "meta_rev_at_epoch": 563,
        "meta_bstar": -0.031132,
        "meta_mean_motion_dot": -0.02078869,
        "meta_mean_motion_ddot": 0,
        "tle_line1": "1 66355U 25254H   25338.75002315 -.02078869  00000+0 -31132-1 0  9999",
        "tle_line2": "2 66355  53.1590 314.8296 0001317 101.3843 144.3734 15.57503447  5636"
      },
      "geometry": {
        "type": "Point",
        "coordinates": [
          -145.55370378051686,
          -52.85667983186288
        ]
      }
    },
    {
      "type": "Feature",
      "properties": {
        "norad_id": 66356,
        "name": "STARLINK-35851",
        "group": "last-30-days",
        "lat": -53.03306688556619,
        "lon": -142.3969861473777,
        "alt_km": 406.5070055481119,
        "timestamp": "2025-12-05T04:52:14.140619+00:00",
        "meta_object_name": "STARLINK-35851",
        "meta_object_id": "2025-254J",
        "meta_epoch": "2025-12-04T18:00:02.000160",
        "meta_mean_motion": 15.57503633,
        "meta_eccentricity": 0.0001347,
        "meta_inclination": 53.1591,
        "meta_ra_of_asc_node": 314.8252,
        "meta_arg_of_pericenter": 103.8655,
        "meta_mean_anomaly": 143.8082,
        "meta_ephemeris_type": 0,
        "meta_classification_type": "U",
        "meta_norad_cat_id": 66356,
        "meta_element_set_no": 999,
        "meta_rev_at_epoch": 563,
        "meta_bstar": -0.03113,
        "meta_mean_motion_dot": -0.02078806,
        "meta_mean_motion_ddot": 0,
        "tle_line1": "1 66356U 25254J   25338.75002315 -.02078806  00000+0 -31130-1 0  9999",
        "tle_line2": "2 66356  53.1591 314.8252 0001347 103.8655 143.8082 15.57503633  5638"
      },
      "geometry": {
        "type": "Point",
        "coordinates": [
          -142.3969861473777,
          -53.03306688556619
        ]
      }
    },
    {
      "type": "Feature",
      "properties": {
        "norad_id": 66357,
        "name": "STARLINK-35817",
        "group": "last-30-days",
        "lat": -53.124975548675955,
        "lon": -139.2200511822262,
        "alt_km": 406.5056888362078,
        "timestamp": "2025-12-05T04:52:14.140628+00:00",
        "meta_object_name": "STARLINK-35817",
        "meta_object_id": "2025-254K",
        "meta_epoch": "2025-12-04T18:00:02.000160",
        "meta_mean_motion": 15.57501937,
        "meta_eccentricity": 0.0001334,
        "meta_inclination": 53.1591,
        "meta_ra_of_asc_node": 314.8212,
        "meta_arg_of_pericenter": 104.4095,
        "meta_mean_anomaly": 145.1824,
        "meta_ephemeris_type": 0,
        "meta_classification_type": "U",
        "meta_norad_cat_id": 66357,
        "meta_element_set_no": 999,
        "meta_rev_at_epoch": 563,
        "meta_bstar": -0.031102,
        "meta_mean_motion_dot": -0.02077008,
        "meta_mean_motion_ddot": 0,
        "tle_line1": "1 66357U 25254K   25338.75002315 -.02077008  00000+0 -31102-1 0  9992",
        "tle_line2": "2 66357  53.1591 314.8212 0001334 104.4095 145.1824 15.57501937  5630"
      },
      "geometry": {
        "type": "Point",
        "coordinates": [
          -139.2200511822262,
          -53.124975548675955
        ]
      }
    },
    {
      "type": "Feature",
      "properties": {
        "norad_id": 66358,
        "name": "STARLINK-35807",
        "group": "last-30-days",
        "lat": -53.1317651693669,
        "lon": -136.03726693159447,
        "alt_km": 406.5101658673884,
        "timestamp": "2025-12-05T04:52:14.140638+00:00",
        "meta_object_name": "STARLINK-35807",
        "meta_object_id": "2025-254L",
        "meta_epoch": "2025-12-04T18:00:02.000160",
        "meta_mean_motion": 15.57500257,
        "meta_eccentricity": 0.0001323,
        "meta_inclination": 53.159,
        "meta_ra_of_asc_node": 314.8166,
        "meta_arg_of_pericenter": 102.5715,
        "meta_mean_anomaly": 148.9387,
        "meta_ephemeris_type": 0,
        "meta_classification_type": "U",
        "meta_norad_cat_id": 66358,
        "meta_element_set_no": 999,
        "meta_rev_at_epoch": 563,
        "meta_bstar": -0.031077,
        "meta_mean_motion_dot": -0.0207537,
        "meta_mean_motion_ddot": 0,
        "tle_line1": "1 66358U 25254L   25338.75002315 -.02075370  00000+0 -31077-1 0  9994",
        "tle_line2": "2 66358  53.1590 314.8166 0001323 102.5715 148.9387 15.57500257  5633"
      },
      "geometry": {
        "type": "Point",
        "coordinates": [
          -136.03726693159447,
          -53.1317651693669
        ]
      }
    }
  ]
}